NORAD_CAT_ID,OBJECT_NAME,OBJECT_TYPE,EPOCH,MEAN_MOTION,ECCENTRICITY,INCLINATION,RA_OF_ASC_NODE,ARG_OF_PERICENTER,MEAN_ANOMALY,BSTAR,MEAN_MOTION_DOT,MEAN_MOTION_DDOT,TLE_LINE0,TLE_LINE1,TLE_LINE2,SEMIMAJOR_AXIS,PERIOD,APOGEE,PERIGEE,DECAYED
54206.0,STARLINK-5264,PAYLOAD,2024-02-12 12:15:18,15.08855931,0.0001516,53.2163,113.5773,104.9864,255.1296,0.00016789,2.386e-05,0.0,0 STARLINK-5264,1 54206U 22141BB  24043.51063037  .00002386  00000-0  16789-3 0  9998,2 54206  53.2163 113.5773 0001516 104.9864 255.1296 15.08855931 72566,6917.832,95.437,540.745,538.648,0.0
54206.0,STARLINK-5264,PAYLOAD,2024-02-13 10:30:44,15.0883739,0.0001527,53.2168,109.4179,85.1563,274.9604,-8.2858e-05,-1.606e-05,0.0,0 STARLINK-5264,1 54206U 22141BB  24044.43801276 -.00001606  00000-0 -82858-4 0  9992,2 54206  53.2168 109.4179 0001527  85.1563 274.9604 15.08837390 72700,6917.888,95.438,540.81,538.697,0.0
54206.0,STARLINK-5264,PAYLOAD,2024-02-13 21:38:26,15.08836774,0.0001399,53.217,107.331,97.0766,263.0386,-0.00010772,-2.002e-05,0.0,0 STARLINK-5264,1 54206U 22141BB  24044.90169319 -.00002002  00000-0 -10772-3 0  9995,2 54206  53.2170 107.3310 0001399  97.0766 263.0386 15.08836774 72544,6917.89,95.438,540.723,538.787,0.0
54206.0,STARLINK-5264,PAYLOAD,2024-02-14 10:21:30,15.08847321,0.0001326,53.217,104.9556,92.1351,267.9793,-1.3212e-05,-4.98e-06,0.0,0 STARLINK-5264,1 54206U 22141BB  24045.43160387 -.00000498  00000-0 -13212-4 0  9990,2 54206  53.2170 104.9556 0001326  92.1351 267.9793 15.08847321 72854,6917.858,95.437,540.64,538.806,0.0
54206.0,STARLINK-5264,PAYLOAD,2024-02-14 13:32:16,15.08854362,0.0001371,53.2155,104.359,90.3747,269.7402,-9.4206e-06,-4.38e-06,0.0,0 STARLINK-5264,1 54206U 22141BB  24045.56407760 -.00000438  00000-0 -94206-5 0  9990,2 54206  53.2155 104.3590 0001371  90.3747 269.7402 15.08854362 72645,6917.836,95.437,540.65,538.753,0.0
54206.0,STARLINK-5264,PAYLOAD,2024-02-14 21:29:12,15.08837085,0.0001158,53.2183,102.8745,82.5941,277.5183,-7.7973e-06,-4.12e-06,0.0,0 STARLINK-5264,1 54206U 22141BB  24045.89528758 -.00000412  00000-0 -77973-5 0  9991,2 54206  53.2183 102.8745 0001158  82.5941 277.5183 15.08837085 72694,6917.889,95.438,540.555,538.953,0.0
54206.0,STARLINK-5264,PAYLOAD,2024-02-15 03:50:45,15.08831084,0.000151,53.2164,101.6835,94.7028,265.4136,3.8809e-05,3.3e-06,0.0,0 STARLINK-5264,1 54206U 22141BB  24046.16025310  .00000330  00000-0  38809-4 0  9999,2 54206  53.2164 101.6835 0001510  94.7028 265.4136 15.08831084 72960,6917.908,95.438,540.817,538.728,0.0
54206.0,STARLINK-5264,PAYLOAD,2024-02-15 10:12:18,15.08832225,0.0001343,53.2163,100.4948,96.5657,263.5488,3.5104e-05,2.71e-06,0.0,0 STARLINK-5264,1 54206U 22141BB  24046.42521356  .00000271  00000-0  35104-4 0  9998,2 54206  53.2163 100.4948 0001343  96.5657 263.5488 15.08832225 72779,6917.904,95.438,540.698,538.84,0.0
54206.0,STARLINK-5264,PAYLOAD,2024-02-16 10:03:05,15.08839314,0.0001487,53.2165,96.0342,95.442,264.6742,2.5345e-05,1.15e-06,0.0,0 STARLINK-5264,1 54206U 22141BB  24047.41881367  .00000115  00000-0  25345-4 0  9992,2 54206  53.2165  96.0342 0001487  95.4420 264.6742 15.08839314 73158,6917.882,95.438,540.776,538.719,0.0
54206.0,STARLINK-5264,PAYLOAD,2024-02-17 01:56:57,15.08829031,0.0001598,53.2163,93.061,96.8138,263.3036,1.369e-05,-7e-07,0.0,0 STARLINK-5264,1 54206U 22141BB  24048.08122219 -.00000070  00000-0  13690-4 0  9991,2 54206  53.2163  93.0610 0001598  96.8138 263.3036 15.08829031 73253,6917.914,95.438,540.884,538.673,0.0
54206.0,STARLINK-5264,PAYLOAD,2024-02-17 09:53:53,15.08819714,0.0001627,53.217,91.5763,96.0786,264.0392,0.00018174,2.604e-05,0.0,0 STARLINK-5264,1 54206U 22141BB  24048.41242604  .00002604  00000-0  18174-3 0  9994,2 54206  53.2170  91.5763 0001627  96.0786 264.0392 15.08819714 73077,6917.942,95.439,540.933,538.682,0.0
54206.0,STARLINK-5264,PAYLOAD,2024-02-17 19:26:12,15.08817144,0.0001697,53.2173,89.7919,103.6355,256.4826,0.00025615,3.788e-05,0.0,0 STARLINK-5264,1 54206U 22141BB  24048.80986677  .00003788  00000-0  25615-3 0  9994,2 54206  53.2173  89.7919 0001697 103.6355 256.4826 15.08817144 73135,6917.95,95.439,540.989,538.641,0.0
54206.0,STARLINK-5264,PAYLOAD,2024-02-18 03:23:07,15.08837862,0.0001638,53.2165,88.3033,96.0545,264.0634,2.734e-05,1.47e-06,0.0,0 STARLINK-5264,1 54206U 22141BB  24049.14106104  .00000147  00000-0  27340-4 0  9995,2 54206  53.2165  88.3033 0001638  96.0545 264.0634 15.08837862 73411,6917.887,95.438,540.885,538.619,0.0
54206.0,STARLINK-5264,PAYLOAD,2024-02-18 09:44:39,15.08843051,0.0002016,53.2164,87.1147,105.3863,254.7352,9.9796e-05,1.301e-05,0.0,0 STARLINK-5264,1 54206U 22141BB  24049.40601524  .00001301  00000-0  99796-4 0  9997,2 54206  53.2164  87.1147 0002016 105.3863 254.7352 15.08843051 73220,6917.871,95.437,541.131,538.341,0.0
54206.0,STARLINK-5264,PAYLOAD,2024-02-18 19:16:58,15.08845637,0.0001617,53.2164,85.33,94.5318,265.5859,4.2421e-05,3.87e-06,0.0,0 STARLINK-5264,1 54206U 22141BB  24049.80345414  .00000387  00000-0  42421-4 0  9990,2 54206  53.2164  85.3300 0001617  94.5318 265.5859 15.08845637 73281,6917.863,95.437,540.847,538.61,0.0
54206.0,STARLINK-5264,PAYLOAD,2024-02-19 09:35:27,15.08834469,0.0001855,53.2179,82.6539,96.3876,263.7328,3.909e-05,3.34e-06,0.0,0 STARLINK-5264,1 54206U 22141BB  24050.39962347  .00000334  00000-0  39090-4 0  9996,2 54206  53.2179  82.6539 0001855  96.3876 263.7328 15.08834469 73602,6917.897,95.438,541.046,538.479,0.0
54206.0,STARLINK-5264,PAYLOAD,2024-02-19 19:07:46,15.08836958,0.0001799,53.2177,80.8691,89.3352,270.7846,1.919e-05,1.7e-07,0.0,0 STARLINK-5264,1 54206U 22141BB  24050.79706348  .00000017  00000-0  19190-4 0  9994,2 54206  53.2177  80.8691 0001799  89.3352 270.7846 15.08836958 73436,6917.89,95.438,540.999,538.51,0.0
54206.0,STARLINK-5264,PAYLOAD,2024-02-20 09:26:14,15.08842618,0.0001686,53.2171,78.1932,94.8946,265.2239,-2.2099e-05,-6.4e-06,0.0,0 STARLINK-5264,1 54206U 22141BB  24051.39322090 -.00000640  00000-0 -22099-4 0  9995,2 54206  53.2171  78.1932 0001686  94.8946 265.2239 15.08842618 73528,6917.872,95.437,540.904,538.571,0.0
54206.0,STARLINK-5264,PAYLOAD,2024-02-21 01:20:06,15.0882653,0.0001698,53.2169,75.22,91.5451,268.5736,0.00015166,2.126e-05,0.0,0 STARLINK-5264,1 54206U 22141BB  24052.05562504  .00002126  00000-0  15166-3 0  9990,2 54206  53.2169  75.2200 0001698  91.5451 268.5736 15.08826530 73858,6917.922,95.438,540.961,538.612,0.0
54206.0,STARLINK-5264,PAYLOAD,2024-02-21 07:41:38,15.08836657,0.0001669,53.2169,74.0308,90.5558,269.5626,4.9129e-05,4.94e-06,0.0,0 STARLINK-5264,1 54206U 22141BB  24052.32058255  .00000494  00000-0  49129-4 0  9996,2 54206  53.2169  74.0308 0001669  90.5558 269.5626 15.08836657 73893,6917.891,95.438,540.91,538.601,0.0
54206.0,STARLINK-5264,PAYLOAD,2024-02-21 18:49:20,15.08838258,0.0001559,53.216,71.948,90.7622,269.3549,2.6804e-05,1.39e-06,0.0,0 STARLINK-5264,1 54206U 22141BB  24052.78426186  .00000139  00000-0  26804-4 0  9999,2 54206  53.2160  71.9480 0001559  90.7622 269.3549 15.08838258 73737,6917.886,95.438,540.829,538.672,0.0
54206.0,STARLINK-5264,PAYLOAD,2024-02-22 07:32:25,15.08837192,0.0001646,53.2162,69.5682,94.198,265.9201,4.9344e-05,4.97e-06,0.0,0 STARLINK-5264,1 54206U 22141BB  24053.31418262  .00000497  00000-0  49344-4 0  9996,2 54206  53.2162  69.5682 0001646  94.1980 265.9201 15.08837192 73810,6917.889,95.438,540.893,538.615,0.0
54206.0,STARLINK-5264,PAYLOAD,2024-02-23 04:12:25,15.08843736,0.0001581,53.2171,65.7019,97.9402,262.1769,3.9014e-06,-2.26e-06,0.0,0 STARLINK-5264,1 54206U 22141BB  24054.17529987 -.00000226  00000-0  39014-5 0  9993,2 54206  53.2171  65.7019 0001581  97.9402 262.1769 15.08843736 74179,6917.869,95.437,540.828,538.64,0.0
54206.0,STARLINK-5264,PAYLOAD,2024-02-23 07:23:11,15.08846738,0.0001607,53.2168,65.1066,96.3185,263.799,2.1848e-05,6e-07,0.0,0 STARLINK-5264,1 54206U 22141BB  24054.30777711  .00000060  00000-0  21848-4 0  9998,2 54206  53.2168  65.1066 0001607  96.3185 263.7990 15.08846738 73965,6917.86,95.437,540.836,538.613,0.0
54206.0,STARLINK-5264,PAYLOAD,2024-02-24 07:13:59,15.08834438,0.0001618,53.217,60.6458,99.2102,260.9074,-1.9844e-05,-6.04e-06,0.0,0 STARLINK-5264,1 54206U 22141BB  24055.30138768 -.00000604  00000-0 -19844-4 0  9991,2 54206  53.2170  60.6458 0001618  99.2102 260.9074 15.08834438 74345,6917.897,95.438,540.882,538.643,0.0
54206.0,STARLINK-5264,PAYLOAD,2024-02-24 16:46:18,15.08835414,0.0001555,53.2175,58.8624,99.7847,260.3321,-3.8933e-05,-9.07e-06,0.0,0 STARLINK-5264,1 54206U 22141BB  24055.69882878 -.00000907  00000-0 -38933-4 0  9997,2 54206  53.2175  58.8624 0001555  99.7847 260.3321 15.08835414 74170,6917.894,95.438,540.835,538.684,0.0
54206.0,STARLINK-5264,PAYLOAD,2024-02-25 07:04:46,15.08843697,0.0001591,53.2171,56.188,96.9593,263.158,-9.6863e-06,-4.42e-06,0.0,0 STARLINK-5264,1 54206U 22141BB  24056.29498452 -.00000442  00000-0 -96863-5 0  9996,2 54206  53.2171  56.1880 0001591  96.9593 263.1580 15.08843697 74493,6917.869,95.437,540.835,538.633,0.0
54206.0,STARLINK-5264,PAYLOAD,2024-02-26 06:55:33,15.08844498,0.0001575,53.2178,51.7278,93.3006,266.8167,0.00011762,1.585e-05,0.0,0 STARLINK-5264,1 54206U 22141BB  24057.28857991  .00001585  00000-0  11762-3 0  9993,2 54206  53.2178  51.7278 0001575  93.3006 266.8167 15.08844498 74417,6917.867,95.437,540.821,538.642,0.0
54206.0,STARLINK-5264,PAYLOAD,2024-02-26 22:49:25,15.0883888,0.0002038,53.219,48.7582,69.7971,290.3241,1.7921e-05,-3e-08,0.0,0 STARLINK-5264,1 54206U 22141BB  24057.95099048 -.00000003  00000-0  17921-4 0  9997,2 54206  53.2190  48.7582 0002038  69.7971 290.3241 15.08838880 74512,6917.884,95.438,541.159,538.339,0.0
54206.0,STARLINK-5264,PAYLOAD,2024-02-27 03:35:35,15.08831369,0.0001875,53.2175,47.8593,67.1249,292.9941,-2.858e-06,-3.34e-06,0.0,0 STARLINK-5264,1 54206U 22141BB  24058.14971593 -.00000334  00000-0 -28580-5 0  9995,2 54206  53.2175  47.8593 0001875  67.1249 292.9941 15.08831369 74773,6917.907,95.438,541.069,538.475,0.0
